[{"OBJECT_NAME":"STARLINK-4343","OBJECT_ID":"2022-077H","EPOCH":"2026-03-09T22:32:47.646240","MEAN_MOTION":15.05646071,"ECCENTRICITY":0.00014833,"INCLINATION":97.6028,"RA_OF_ASC_NODE":251.4413,"ARG_OF_PERICENTER":85.0971,"MEAN_ANOMALY":275.0426,"EPHEMERIS_TYPE":0,"CLASSIFICATION_TYPE":"U","NORAD_CAT_ID":53050,"ELEMENT_SET_NO":999,"REV_AT_EPOCH":20101,"BSTAR":1.993622e-5,"MEAN_MOTION_DOT":2.27e-6,"MEAN_MOTION_DDOT":0},{"OBJECT_NAME":"TITAN 4B DEB","OBJECT_ID":"2000-047D","EPOCH":"2026-03-09T07:18:39.687264","MEAN_MOTION":14.9350217,"ECCENTRICITY":0.00548001,"INCLINATION":67.9962,"RA_OF_ASC_NODE":173.9856,"ARG_OF_PERICENTER":92.7359,"MEAN_ANOMALY":268.0056,"EPHEMERIS_TYPE":0,"CLASSIFICATION_TYPE":"U","NORAD_CAT_ID":35415,"ELEMENT_SET_NO":999,"REV_AT_EPOCH":6621,"BSTAR":7.6847696e-5,"MEAN_MOTION_DOT":7.12e-6,"MEAN_MOTION_DDOT":0}]
